STARLINK-31231          
1 59034U 24038M   26068.26950667 -.00000305  00000+0 -15589-5 0  9993
2 59034  43.0047  25.9678 0001200 275.6267  84.4448 15.27574784114622
ARCSTONE                
1 64540U 25135N   26068.88991918  .00026427  00000+0  94900-3 0  9995
2 64540  97.4495 185.9194 0004120 166.7863 193.3485 15.28638458 39847
